BEIDOU-31 M9       
1 43581U 18062A   20321.50196786 -.00000004  00000-0  00000-0 0  9993
2 43581  54.4951 251.9081 0005458 279.4196 213.7054  1.86231930 15660
BEIDOU-32 M18   
1 43707U 18093B   20321.58094231 -.00000004  00000-0  00000-0 0  9997
2 43707  54.5750 251.7401 0009870 293.7436 207.9489  1.86232182 13564
BEIDOU-33 M23    
1 44542U 19061A   20321.65635081 -.00000004  00000-0  10000-3 0  9997
2 44542  54.7996 251.7765 0009570 319.7461 186.2042  1.86231653  7821
BEIDOU-34 M17    
1 43706U 18093A   20320.81734397 -.00000007  00000-0  00000-0 0  9998
2 43706  54.5771 251.7780 0011047 272.3231 346.7526  1.86231904 13544
BEIDOU-35 M24     
1 44543U 19061B   20321.31368853 -.00000004  00000-0  10000-3 0  9991
2 44543  54.7985 251.7569 0006971 310.7091 236.0784  1.86231937  7826
BEIDOU-36 M11     
1 43602U 18067A   20321.48709382 -.00000003  00000-0  00000-0 0  9990
2 43602  54.5691 250.4662 0007163 348.2476 268.6589  1.86231563 15154
BEIDOU-37 M10     
1 43582U 18062B   20321.48649176 -.00000005  00000-0  00000-0 0  9998
2 43582  54.4952 251.9004 0005974 337.8040 236.0431  1.86232338 15667
BEIDOU-38 M12     
1 43603U 18067B   20321.27664810 -.00000003  00000-0  00000-0 0  9994
2 43603  54.5648 250.4397 0004659 334.6766  51.6412  1.86231482 15177
BEIDOU-21 M21            
1 44793U 19078A   20321.30057734 -.00000093  00000-0  10000-3 0  9996
2 44793  55.0597  10.5101 0005400 344.2449  28.6260  1.86232599  6686
BEIDOU-22 M16    
1 43648U 18078B   20321.37766473 -.00000093  00000-0  10000-3 0  9997
2 43648  55.2079  10.4246 0003669 340.5562  38.1045  1.86231769 14213
BEIDOU-23 M22            
1 44794U 19078B   20320.87335858 -.00000091  00000-0  10000-3 0  9992
2 44794  55.0376  10.5298 0003565 334.5919  22.4152  1.86232722  6661
BEIDOU-24 M4       
1 43108U 18003B   20321.58801755 -.00000095  00000-0  00000+0 0  9999
2 43108  55.3727  12.3916 0004518 235.6191 194.6493  1.86232798 19398
BEIDOU-25 M3      
1 43107U 18003A   20321.18153941 -.00000093  00000-0  00000-0 0  9990
2 43107  55.3783  12.4124 0003108  42.1343  70.4366  1.86232677 19380
BEIDOU-26 M8       
1 43246U 18029B   20321.55108228 -.00000094  00000-0  10000-3 0  9996
2 43246  55.3162  10.2346 0003623 323.7055 352.7219  1.86233076 17911
BEIDOU-27 M7     
1 43245U 18029A   20321.14059765 -.00000092  00000-0  00000-0 0  9995
2 43245  55.3203  10.2161 0001371 231.3555 123.8521  1.86232808 17913
BEIDOU-28 M15      
1 43647U 18078A   20321.44041618 -.00000094  00000-0  10000-3 0  9992
2 43647  55.2115  10.4146 0005759 337.5248 174.3921  1.86232904 14196
BEIDOU-11 M1     
1 43001U 17069A   20321.14635226  .00000050  00000-0  00000-0 0  9993
2 43001  55.2699 131.1000 0007056 290.8134 308.5933  1.86231842 20623
BEIDOU-12 M5      
1 43207U 18018A   20321.39375395  .00000048  00000-0  00000-0 0  9998
2 43207  55.2308 131.2255 0004660 358.0091   1.9976  1.86231531 18777
BEIDOU-13 M6      
1 43208U 18018B   20320.92358561  .00000053  00000-0  00000-0 0  9999
2 43208  55.2302 131.2462 0005322 306.7432  53.2197  1.86231548 18769
BEIDOU-14 M20          
1 44865U 19090B   20321.26086157  .00000049  00000-0  00000-0 0  9992
2 44865  55.1315 131.0782 0012088 279.4266 261.9830  1.86231912  6240
BEIDOU-15 M14      
1 43623U 18072B   20321.33160625  .00000048  00000-0  00000-0 0  9992
2 43623  55.1973 130.7948 0002983 337.7205 206.1165  1.86231853 14688
BEIDOU-16 M19            
1 44864U 19090A   20321.39869075  .00000047  00000-0  00000-0 0  9991
2 44864  55.1284 131.0434 0013346 260.5743 283.3109  1.86231941  6268
BEIDOU-17 M13    
1 43622U 18072A   20321.46560079  .00000046  00000-0  00000-0 0  9990
2 43622  55.1929 130.7991 0003782 287.6205 255.8210  1.86231808 14689
BEIDOU-18 M2      
1 43002U 17069B   20321.14181976  .00000051  00000-0  00000-0 0  9993
2 43002  55.2719 131.1356 0006318 323.0667 317.0005  1.86231517 20614





